,Company,Industry,NUMBER,STREET,UNIT,CITY,POSTCODE,LON,LAT
0,"Little, Mcdonald and Miller",Science writer,2550,DANA ST,,BERKELEY,94704,-122.26071359999999,37.8632048
1,"Carter, Douglas and Taylor",Occupational therapist,1012,GRAYSON ST,A,BERKELEY,94710,-122.28943410000001,37.8556915
2,"Ramirez, Nichols and King","Horticulturist, commercial",1012,GRAYSON ST,C,BERKELEY,94710,-122.28943410000001,37.8556915
3,"Berry, Webb and Blackburn",Arts administrator,1813,NINTH ST,,BERKELEY,94710,-122.29470309999999,37.8707409
4,Ramirez and Sons,Prison officer,1901,CURTIS ST,,BERKELEY,94702,-122.2893903,37.870799100000006
5,Stewart and Sons,"Education officer, environmental",1829,SIXTY-THIRD ST,,BERKELEY,94703,-122.2698862,37.84829179999999
6,Peterson and Sons,Outdoor activities/education manager,2641,WEBSTER ST,1,BERKELEY,94705,-122.2533533,37.8562407
7,"Lin, Sanchez and Strickland",Chartered loss adjuster,1314,HASKELL ST,A,BERKELEY,94702,-122.2823898,37.85098970000001
8,Brown-Salinas,"Research officer, political party",2522,DANA ST,101,BERKELEY,94704,-122.26081090000002,37.863695899999996
9,Fitzpatrick Ltd,Early years teacher,2122,JEFFERSON AVE,,BERKELEY,94703,-122.27887620000001,37.8688956
10,Crawford-Gates,"Lecturer, further education",1917,FRANCISCO ST,,BERKELEY,94709,-122.27262079999998,37.8754813
11,"Stone, Griffin and Garcia","Designer, graphic",1646,CORNELL AVE,,BERKELEY,94702,-122.2911416,37.8740066
12,Jordan-Cline,"Restaurant manager, fast food",1645,CORNELL AVE,,BERKELEY,94702,-122.2907976,37.8740245
13,Torres Ltd,Materials engineer,1709,MILVIA ST,,BERKELEY,94709,-122.2708655,37.8759629
14,"Freeman, Rivera and Gray",Illustrator,2301,VIRGINIA ST,1,BERKELEY,94709,-122.2639252,37.877532099999996
15,"Combs, Harper and Griffin",Theme park manager,1176,ARCH ST,,BERKELEY,94708,-122.26587009999999,37.8868742
16,Wood PLC,Communications engineer,1178,EUCLID AVE,1,BERKELEY,94708,-122.2627131,37.887786600000005
17,"Christensen, Martin and Gray",Early years teacher,2515,ASHBY AVE,2,BERKELEY,94705,-122.25611289999999,37.8569238
18,Mosley-Mcdowell,Emergency planning/management officer,2928,FLORENCE ST,B,BERKELEY,94705,-122.25866129999999,37.8568381
19,"Erickson, Hardin and Bowers",Chemical engineer,2914,DEAKIN ST,A2,BERKELEY,94705,-122.26285530000001,37.8566514
20,Chavez PLC,"Engineer, civil (consulting)",928,CARLETON ST,,BERKELEY,94710,-122.2921601,37.856885
21,"Green, Fletcher and Williams","Engineer, communications",2723,ASHBY PL,B,BERKELEY,94705,-122.25247399999999,37.857742
22,Lee-Jones,Astronomer,1412,OXFORD ST,,BERKELEY,94709,-122.2675493,37.881725
23,"Rios, Sanford and Wade","Engineer, petroleum",2006,ROSE ST,,BERKELEY,94709,-122.2713128,37.8815547
24,Morgan-Calhoun,"Engineer, electronics",2234,WARD ST,1,BERKELEY,94705,-122.26252020000001,37.859738
25,"Norris, Conway and Thomas",Water engineer,1812,PARKER ST,,BERKELEY,94703,-122.27318590000002,37.8610816
26,"Calderon, Garcia and Hoover","Solicitor, Scotland",1411,SPRUCE ST,1,BERKELEY,94709,-122.26576429999999,37.8820124
27,Duke Ltd,"Designer, ceramics/pottery",933,ADDISON ST,E,BERKELEY,94710,-122.2945824,37.8676064
28,Roberts-Cole,Radio producer,2228,SIXTH ST,,BERKELEY,94710,-122.29678429999998,37.864175700000004
29,"Best, Olson and Morales",Hydrogeologist,1128,DELAWARE ST,,BERKELEY,94702,-122.2914192,37.8714984
30,White-Taylor,Animal nutritionist,1140,DELAWARE ST,1,BERKELEY,94702,-122.29089170000002,37.8715551
31,"Hawkins, Patel and Briggs",Research scientist (medical),2611,PIEDMONT AVE,1,BERKELEY,94704,-122.2510544,37.86360620000001
32,"Spears, Clark and Walker","Engineer, maintenance",2403,BLAKE ST,,BERKELEY,94704,-122.26021740000002,37.864225
33,Smith-Morgan,Television floor manager,1214,ASHBY AVE,A,BERKELEY,94702,-122.2857791,37.8520798
34,Kim and Sons,TEFL teacher,2842,WOOLSEY ST,1,BERKELEY,94705,-122.249269,37.8540511
35,Chambers-Stewart,Nutritional therapist,2820,PRINCE ST,,BERKELEY,94705,-122.24917520000001,37.854847899999996
36,Cox and Sons,Insurance claims handler,2725,PRINCE ST,1,BERKELEY,94705,-122.25169869999999,37.855219399999996
37,"Williams, Gibbs and Snow",Social researcher,1721,DELAWARE ST,,BERKELEY,94703,-122.276873,37.8740059
38,"Russell, Schroeder and Thompson",Petroleum engineer,1926,FRANCISCO ST,,BERKELEY,94709,-122.272065,37.8750002
39,Sellers and Sons,Jewellery designer,1401,ACTON CRES,,BERKELEY,94702,-122.28373390000002,37.86780770000001
40,Reed Inc,Health physicist,2900,COLLEGE AVE,,BERKELEY,94705,-122.25335179999999,37.8582277
41,Bryant-French,Biomedical engineer,2141,OREGON ST,1,BERKELEY,94705,-122.26496359999999,37.858137400000004
42,Rojas-Davis,Maintenance engineer,2315,EDWARDS ST,,BERKELEY,94702,-122.28219840000001,37.8650989
43,Prince Inc,"Geologist, wellsite",2406,DANA ST,A,BERKELEY,94704,-122.2612817,37.866192600000005
44,Hall-Hardy,"Sound technician, broadcasting/film/video",1846,DELAWARE ST,1,BERKELEY,94703,-122.27356699999999,37.8740156
45,"Hartman, Kirk and Mcguire",Aid worker,2326,LE CONTE AVE,1,BERKELEY,94709,-122.2632893,37.8750028
46,"Avery, Ramsey and Jordan",Energy manager,1020,JONES ST,,BERKELEY,94710,-122.29573020000001,37.8758658
47,"Hall, Wilson and Garcia","Surveyor, insurance",1642,MILVIA ST,1,BERKELEY,94709,-122.2715725,37.876563
48,Spencer Inc,Petroleum engineer,2216,LOS ANGELES AVE,,BERKELEY,94707,-122.26729650000001,37.8881287
49,"Sanders, Ball and Hancock",Industrial buyer,2792,SHASTA RD,,BERKELEY,94708,-122.2562453,37.887624200000005
50,"Barnes, Walker and Wilson","Engineer, land",2987,COLLEGE AVE,,BERKELEY,94705,-122.25267020000001,37.8564098
51,"Brady, Williams and Hughes",Fashion designer,51,OAKVALE AVE,,BERKELEY,94705,-122.2447155,37.8559557
52,Holt-Nichols,"Programmer, applications",2927,BENVENUE AVE,,BERKELEY,94705,-122.2539692,37.8574494
53,"Lee, Walton and Miller","Scientist, research (physical sciences)",2906,BENVENUE AVE,,BERKELEY,94705,-122.25469040000002,37.857996500000006
54,Jones-Walters,Microbiologist,1711,NINTH ST,,BERKELEY,94710,-122.29532069999999,37.8726598
55,"Summers, Bradley and Thompson",Health promotion specialist,1417,OXFORD ST,1,BERKELEY,94709,-122.26687279999999,37.8817224
56,Hernandez-Campbell,Ecologist,1241,EVELYN AVE,,BERKELEY,94706,-122.2914156,37.881803999999995
57,Richardson-Baxter,Exercise physiologist,1732,HEARST AVE,1,BERKELEY,94703,-122.27612479999999,37.872659000000006
58,"Miller, Walton and Finley",Product designer,2330,TENTH ST,,BERKELEY,94710,-122.29179369999999,37.86317879999999
59,Bailey Ltd,Research scientist (physical sciences),2316,BLAKE ST,A,BERKELEY,94704,-122.26195890000001,37.8634817
60,"Davis, Sandoval and Allen",Psychotherapist,2611,LE CONTE AVE,,BERKELEY,94709,-122.2581244,37.877515
61,Baker-Chase,"Civil engineer, consulting",1328,ADA ST,,BERKELEY,94702,-122.28695390000001,37.8782036
62,Foster-Taylor,Fashion designer,1320,NINTH ST,,BERKELEY,94710,-122.298176,37.879134
63,Ramirez PLC,Financial risk analyst,1578,HOPKINS ST,,BERKELEY,94707,-122.2814618,37.8816592
64,Scott-Walker,"Surveyor, minerals",1124,OXFORD ST,,BERKELEY,94707,-122.2686713,37.88808529999999
65,"Garcia, Wilson and Nunez",Sports development officer,910,COLUSA AVE,2,BERKELEY,94707,-122.27949650000001,37.8908749
66,Bryan-Alexander,Wellsite geologist,2106,CALIFORNIA ST,,BERKELEY,94703,-122.27998600000001,37.8693624
67,"Carter, Costa and Alvarez",Private music teacher,1545,ADDISON ST,,BERKELEY,94703,-122.2800364,37.8699341
68,"Robbins, Carroll and White","Teacher, primary school",1309,HOPKINS ST,,BERKELEY,94702,-122.288348,37.87861420000001
69,"Hopkins, Torres and Sandoval",Records manager,1231,FOURTH ST,A,BERKELEY,94710,-122.30350349999999,37.8798848
70,Wiley-James,Counselling psychologist,1230,KAINS AVE,,BERKELEY,94706,-122.2953394,37.8812424
71,Chavez-Johns,Heritage manager,1846,DELAWARE ST,3,BERKELEY,94703,-122.27356699999999,37.8740156
72,"Hoover, Atkins and Dixon",Product manager,2804,HILLEGASS AVE,3,BERKELEY,94705,-122.25612759999999,37.8595283
73,Thomas Ltd,Site engineer,2314,BLAKE ST,,BERKELEY,94704,-122.2621365,37.863460700000005
74,Hansen-Lindsey,"Designer, textile",2741,GARBER ST,2,BERKELEY,94705,-122.2516983,37.8609793
75,Roberson Ltd,Probation officer,2444,VIRGINIA ST,B,BERKELEY,94709,-122.26176720000001,37.8773889
76,"Cook, Walsh and Downs",Ambulance person,2210,STUART ST,1,BERKELEY,94705,-122.26348899999999,37.8587054
77,Dillon-Taylor,"Engineer, manufacturing systems",2808,HILLEGASS AVE,A1,BERKELEY,94705,-122.25610559999998,37.859322
78,Woods-Carter,Community development worker,2623,BENVENUE AVE,A,BERKELEY,94704,-122.25453970000001,37.8627505
79,Barker Inc,Armed forces operational officer,1921,HASTE ST,,BERKELEY,94704,-122.2712044,37.8646599
80,King-Sanchez,"Programmer, multimedia",1521,HEARST AVE,,BERKELEY,94703,-122.28097849999999,37.8725682
81,Quinn Group,Osteopath,1207,FRANCISCO ST,,BERKELEY,94702,-122.2895231,37.8733206
82,"Sexton, Tran and Pena",Town planner,1232,DELAWARE ST,,BERKELEY,94702,-122.2887006,37.8718399
83,"Simpson, Waller and Thomas",Pathologist,1718,CHANNING WAY,,BERKELEY,94703,-122.2759983,37.864563200000006
84,Nguyen PLC,Passenger transport manager,2365,VIRGINIA ST,1,BERKELEY,94709,-122.2632861,37.8777114
85,Haynes PLC,"Engineer, materials",800,DELAWARE ST,1-Jan,BERKELEY,94710,-122.2990841,37.8704076
86,Hall-Rogers,"Teacher, secondary school",2601,COLLEGE AVE,107,BERKELEY,94704,-122.25331570000002,37.8637058
87,"Santos, Pierce and Smith",Public librarian,2120,SIXTH ST,7,BERKELEY,94710,-122.29736840000001,37.865880700000005
88,Ferrell-Hunter,Planning and development surveyor,2985,COLLEGE AVE,,BERKELEY,94705,-122.25267020000001,37.8564098
89,Kaufman-Perry,"Surveyor, rural practice",51,OAKVALE AVE,,BERKELEY,94705,-122.2447155,37.8559557
90,"Dougherty, Martinez and Clements",Chartered public finance accountant,2922,HILLEGASS AVE,A,BERKELEY,94705,-122.25597420000001,37.8571801
91,Rivera-Joseph,Surgeon,2980,COLLEGE AVE,1,BERKELEY,94705,-122.25334099999999,37.856528000000004
92,Gonzalez PLC,"Scientist, forensic",1434,BERKELEY WAY,,BERKELEY,94702,-122.28267360000001,37.8708851
93,Garcia and Sons,Biomedical scientist,1336,BERKELEY WAY,,BERKELEY,94702,-122.28575,37.870493700000004
94,Campbell-Gonzalez,Science writer,1209,DELAWARE ST,,BERKELEY,94702,-122.2893314,37.8724534
95,Herman-Delgado,"Engineer, land",2550,DANA ST,G1,BERKELEY,94704,-122.26071359999999,37.8632048
96,Gonzalez Group,Volunteer coordinator,2430,FIFTH ST,A,BERKELEY,94710,-122.2967305,37.860243700000005
97,Spencer-Zhang,Trade union research officer,1814,BLAKE ST,1,BERKELEY,94703,-122.27327350000002,37.8619865
98,"Porter, Oliver and Cooper",Operational investment banker,2326,BROWNING ST,,BERKELEY,94702,-122.28767820000002,37.8639605
99,"Thompson, Norris and Barnes",Education administrator,1515,HOPKINS ST,5,BERKELEY,94707,-122.2829669,37.8813789
100,Hayes PLC,Health visitor,1404,HENRY ST,2,BERKELEY,94709,-122.27100949999999,37.881505499999996
101,"Mata, Ibarra and Hurst","Scientist, research (physical sciences)",2634,VIRGINIA ST,23,BERKELEY,94709,-122.25811019999999,37.877865299999996
102,Munoz Ltd,"Therapist, nutritional",2325,HOWE ST,1,BERKELEY,94705,-122.26022250000001,37.8572068
103,Watson Ltd,Illustrator,2316,BLAKE ST,B,BERKELEY,94704,-122.26195890000001,37.8634817
104,Knight-Mcmillan,Fisheries officer,2602,COLLEGE AVE,,BERKELEY,94704,-122.2538469,37.8634045
105,Gonzalez-Wilson,Music tutor,2405,BLAKE ST,,BERKELEY,94704,-122.26021740000002,37.864225
106,Wright-Gray,Colour technologist,2600,ETNA ST,3,BERKELEY,94704,-122.2528252,37.8638103
107,"Murphy, Griffith and Martinez",Chartered legal executive (England and Wales),2430,TENTH ST,,BERKELEY,94710,-122.29124669999999,37.861501000000004
108,Cameron-Sanchez,"Therapist, drama",3036,FULTON ST,A,BERKELEY,94705,-122.26358259999999,37.8543909
109,"Brown, Anthony and Harris","Loss adjuster, chartered",2636,REGENT ST,,BERKELEY,94704,-122.25785159999998,37.861962299999995
110,Figueroa Ltd,Learning mentor,3109,COLLEGE AVE,A,BERKELEY,94705,-122.2523701,37.8534062
111,"Hayes, Cross and Bartlett",Rural practice surveyor,3045,DEAKIN ST,L,BERKELEY,94705,-122.2617764,37.8540511
112,Garcia-Eaton,Technical sales engineer,1832,DELAWARE ST,1,BERKELEY,94703,-122.2740945,37.873823
113,Hill Ltd,Telecommunications researcher,1629,EIGHTH ST,,BERKELEY,94710,-122.2968284,37.87354129999999
114,Higgins LLC,"Conservator, museum/gallery",2021,HEARST AVE,B,BERKELEY,94709,-122.2699642,37.873984
115,Howard LLC,Counselling psychologist,2220,SACRAMENTO ST,7,BERKELEY,94702,-122.2822304,37.866417999999996
116,Hughes Ltd,"Nurse, learning disability",1810,DWIGHT WAY,,BERKELEY,94703,-122.2735648,37.8628914
117,"Blake, Thomas and Shields",Academic librarian,2980,COLLEGE AVE,9,BERKELEY,94705,-122.25334099999999,37.856528000000004
118,"Adkins, Torres and Chapman","Engineer, mining",2550,DANA ST,G9,BERKELEY,94704,-122.26071359999999,37.8632048
119,Kennedy Group,Armed forces operational officer,930,CARLETON ST,,BERKELEY,94710,-122.2921601,37.856885
120,Schroeder Ltd,Government social research officer,2723,ASHBY PL,A,BERKELEY,94705,-122.25247399999999,37.857742
121,Garza-Todd,"Designer, furniture",1726,HEARST AVE,B,BERKELEY,94703,-122.27646399999999,37.8726153
122,"Thomas, Robertson and Williams",Field trials officer,2314,BLAKE ST,,BERKELEY,94704,-122.2621365,37.863460700000005
123,"Allen, Wright and Flores",Personnel officer,2547,PIEDMONT AVE,2,BERKELEY,94704,-122.25118700000002,37.864328
124,"Rojas, Maldonado and Sanders","Engineer, civil (consulting)",1294,MONTEREY AVE,,BERKELEY,94707,-122.28263249999999,37.88237120000001
125,Owens PLC,Air broker,2043,BERRYMAN ST,,BERKELEY,94709,-122.27015520000002,37.884125399999995
126,Henry-Miller,Ergonomist,2418,FIFTH ST,B,BERKELEY,94710,-122.29686090000001,37.8606531
127,Martin-Garcia,"Designer, industrial/product",2601,DANA ST,A,BERKELEY,94704,-122.259998,37.8629152
128,"Lee, Miranda and Hoover",Recycling officer,2632,HILLEGASS AVE,1,BERKELEY,94704,-122.25657269999999,37.8621784
129,"Compton, Gallegos and Ford",Air cabin crew,1740,ADDISON ST,A,BERKELEY,94703,-122.27550990000002,37.8700241
130,"Clark, Ferguson and Davis","Research officer, political party",1812,SIXTH ST,1,BERKELEY,94710,-122.2986644,37.869960799999994
131,"James, Adams and Cooley","Surveyor, commercial/residential",1672,UNIVERSITY AVE,,BERKELEY,94703,-122.27816409999998,37.8705395
132,"Sharp, Parker and Prince",Secretary/administrator,2550,DANA ST,G6,BERKELEY,94704,-122.26071359999999,37.8632048
133,Cross Ltd,Forest/woodland manager,2348,HILGARD AVE,,BERKELEY,94709,-122.2635274,37.8780291
134,Bishop and Sons,Radiation protection practitioner,2741,GARBER ST,6,BERKELEY,94705,-122.2516983,37.8609793
135,"Baker, Moss and Carter",Clinical cytogeneticist,2016,DELAWARE ST,C,BERKELEY,94709,-122.270312,37.8743119
136,Gonzalez and Sons,Animal nutritionist,2414,HILGARD AVE,,BERKELEY,94709,-122.2626093,37.878251
137,White-Page,"Teacher, secondary school",2634,VIRGINIA ST,12,BERKELEY,94709,-122.25811019999999,37.877865299999996
138,"Harrison, Long and Mahoney","Engineer, aeronautical",1658,CALIFORNIA ST,,BERKELEY,94703,-122.28047190000001,37.8753428
139,"Holden, Ellison and Holland",Early years teacher,1785,OXFORD ST,,BERKELEY,94709,-122.2661705,37.87528820000001
140,Finley-Butler,"Engineer, technical sales",1767,EUCLID AVE,1,BERKELEY,94709,-122.2601243,37.876631
141,Anderson PLC,Academic librarian,1521,M L KING JR WAY,1,BERKELEY,94709,-122.2734685,37.8788394
142,Russell-Watson,"Lecturer, further education",2501,DANA ST,1,BERKELEY,94704,-122.2603926,37.864649
143,Jackson Group,Higher education careers adviser,2425,BLAKE ST,,BERKELEY,94704,-122.25928640000001,37.8643674
144,Berry-Sanchez,Regulatory affairs officer,2646,ASHBY AVE,,BERKELEY,94705,-122.253307,37.8568268
145,Murphy-Williams,Pathologist,2323,HOWE ST,2,BERKELEY,94705,-122.26022250000001,37.8572068
146,"Hawkins, Maddox and Watson",Psychiatrist,1822,BERKELEY WAY,2,BERKELEY,94703,-122.2742487,37.8720348
147,Richardson-Pratt,Banker,1211,DELAWARE ST,,BERKELEY,94702,-122.2893314,37.8724534
148,Ryan-Sellers,Dance movement psychotherapist,2512,NINTH ST,1,BERKELEY,94710,-122.29206780000001,37.8602449
149,"Lee, Thomas and Hayden","Surveyor, minerals",2415,FIFTH ST,,BERKELEY,94710,-122.29632920000002,37.8608973
150,Harmon-Powell,Call centre manager,2115,STUART ST,1,BERKELEY,94705,-122.26613970000001,37.8589031
151,"Rogers, Price and Davis",Heritage manager,2133,DERBY ST,,BERKELEY,94705,-122.2653551,37.860830299999996
152,Harrison and Sons,Dance movement psychotherapist,2640,BENVENUE AVE,,BERKELEY,94704,-122.255256,37.8620961
153,"Patterson, Cortez and Stafford",Production manager,2626,BENVENUE AVE,1,BERKELEY,94704,-122.25530390000002,37.862606299999996
154,Thompson-James,"Radiographer, diagnostic",2905,CHANNING WAY,,BERKELEY,94704,-122.25015079999999,37.868171200000006
155,Mcgrath Inc,Recycling officer,1300,ADDISON ST,,BERKELEY,94702,-122.2860206,37.8686248
156,"Fleming, Snyder and Washington",Secretary/administrator,2029,CHANNING WAY,2B,BERKELEY,94704,-122.26856090000001,37.8659125
157,"Dunn, Miller and Frazier","Research officer, trade union",2220,SACRAMENTO ST,6,BERKELEY,94702,-122.2822304,37.866417999999996
158,Phillips-Scott,Trade mark attorney,2201,VIRGINIA ST,6,BERKELEY,94709,-122.2663502,37.877078000000004
159,"Graham, Pearson and Avila","Therapist, drama",1730,HIGHLAND PL,1,BERKELEY,94709,-122.25635349999999,37.877210999999996
160,Robinson-Hall,Production engineer,2614,WARRING ST,3,BERKELEY,94704,-122.25057379999998,37.8634527
161,Lee-Garcia,Geophysical data processor,2407,BLAKE ST,,BERKELEY,94704,-122.26021740000002,37.864225
162,Mcmillan-Campbell,Sports coach,1012,GRAYSON ST,B,BERKELEY,94710,-122.28943410000001,37.8556915
163,"Rodriguez, Smith and Hughes",Cytogeneticist,1127,HEARST AVE,,BERKELEY,94702,-122.2916594,37.870889
164,Edwards Ltd,"Buyer, retail",1729,SIXTH ST,,BERKELEY,94710,-122.2984238,37.871461
165,Gibson Group,Biomedical engineer,2619,ETNA ST,A,BERKELEY,94704,-122.2521622,37.863171200000004
166,Moore PLC,Company secretary,1336,SEVENTH ST,,BERKELEY,94710,-122.3001731,37.8782912
167,Diaz Inc,Logistics and distribution manager,1417,SPRUCE ST,A,BERKELEY,94709,-122.2657405,37.881799900000004
168,Williams-Benson,Actor,1410,HENRY ST,,BERKELEY,94709,-122.27097890000002,37.881178600000005
169,Johnston PLC,Recruitment consultant,2832,WEBSTER ST,,BERKELEY,94705,-122.2488494,37.855745
170,Cox-Chen,Fish farm manager,2815,PIEDMONT AVE,A,BERKELEY,94705,-122.250818,37.85950510000001
171,"Montgomery, Klein and Snow","Production assistant, radio",2904,COLLEGE AVE,,BERKELEY,94705,-122.25335179999999,37.8582277
172,Woods-Proctor,"Solicitor, Scotland",1300,SHATTUCK AVE,A,BERKELEY,94709,-122.27001000000001,37.8836055
173,Carlson and Sons,Solicitor,1219,OXFORD ST,1,BERKELEY,94709,-122.26729509999998,37.8852848
174,Allison-Jackson,Garment/textile technologist,933,ADDISON ST,B,BERKELEY,94710,-122.2945824,37.8676064
175,Sanchez-Herrera,Corporate investment banker,1414,OXFORD ST,,BERKELEY,94709,-122.2675493,37.881725
176,Barnett Ltd,Cabin crew,1411,WALNUT ST,,BERKELEY,94709,-122.2680237,37.8817992
177,Wu-Elliott,"Psychologist, prison and probation services",2484,M L KING JR WAY,,BERKELEY,94704,-122.2723787,37.863530700000005
178,Munoz-Andersen,Psychotherapist,2486,M L KING JR WAY,,BERKELEY,94704,-122.2723787,37.863530700000005
179,Lee and Sons,Airline pilot,2149,STUART ST,1,BERKELEY,94705,-122.2647885,37.859074299999996
180,Jackson-Hernandez,Financial controller,1801,BLAKE ST,,BERKELEY,94703,-122.27393980000001,37.8625301
181,"Lawrence, Moyer and Jones",Meteorologist,2311,JEFFERSON AVE,A,BERKELEY,94703,-122.2777588,37.8658643
182,"Stone, Christensen and Spencer",Podiatrist,1653,SCENIC AVE,,BERKELEY,94709,-122.2626093,37.878251
183,Moore Inc,"Lecturer, higher education",1635,SCENIC AVE,1,BERKELEY,94709,-122.26262009999999,37.8786974
184,Moody PLC,Product manager,2566,VIRGINIA ST,1,BERKELEY,94709,-122.2593389,37.87770220000001
185,"Davis, Fox and Powell",Communications engineer,1406,EUCLID AVE,1,BERKELEY,94708,-122.2617988,37.8827826
186,"Rivera, Mathews and Taylor","Psychotherapist, child",1414,SPRING WAY,,BERKELEY,94708,-122.2641876,37.882327200000006
187,Douglas PLC,Audiological scientist,3017,COLLEGE AVE,2,BERKELEY,94705,-122.25255159999999,37.8551981
188,Brown Group,Ophthalmologist,2141,OREGON ST,2,BERKELEY,94705,-122.26496359999999,37.858137400000004
189,Nunez Ltd,Architectural technologist,2815,REGENT ST,2,BERKELEY,94705,-122.25660829999998,37.8592185
190,Johnson-Fleming,Occupational hygienist,1235,HENRY ST,,BERKELEY,94709,-122.2706676,37.8843956
191,Estrada-Hall,Press sub,1237,OXFORD ST,,BERKELEY,94709,-122.2672237,37.8846863
192,"White, Hunt and Hall","Scientist, biomedical",1219,OXFORD ST,A,BERKELEY,94709,-122.26729509999998,37.8852848
193,Solomon-Jones,Manufacturing systems engineer,2218,LOS ANGELES AVE,,BERKELEY,94707,-122.26729650000001,37.8881287
194,Chambers PLC,Clinical molecular geneticist,1814,SIXTY-THIRD ST,A,BERKELEY,94703,-122.27034450000001,37.847689100000004
195,"Cardenas, James and Howard","Engineer, site",3154,COLLEGE AVE,1,BERKELEY,94705,-122.2528513,37.851904100000006
196,Flores-Barker,Chief Marketing Officer,3121,COLLEGE AVE,1,BERKELEY,94705,-122.2523395,37.853077899999995
197,Keller Inc,"Editor, film/video",2915,BENVENUE AVE,1,BERKELEY,94705,-122.25400020000001,37.8578236
198,Spencer Inc,Financial risk analyst,2551,VIRGINIA ST,,BERKELEY,94709,-122.2599616,37.8781415
199,"Obrien, Clark and Morgan",Event organiser,1642,CURTIS ST,,BERKELEY,94702,-122.29034409999998,37.874182899999994
200,Horn and Sons,Sports administrator,1777,OXFORD ST,,BERKELEY,94709,-122.2661835,37.875413200000004
201,"Thompson, Becker and Finley",Technical author,1849,ARCH ST,A,BERKELEY,94709,-122.2637937,37.8754328
202,Potter Inc,Associate Professor,1812,ARCH ST,,BERKELEY,94709,-122.2644463,37.8756604
203,Hunt Inc,"Psychotherapist, child",1223,OXFORD ST,1,BERKELEY,94709,-122.26726629999999,37.8850671
204,Armstrong Group,"Therapist, nutritional",1309,HENRY ST,,BERKELEY,94709,-122.27052649999999,37.8832466
205,Brewer-Davenport,Armed forces training and education officer,1515,HENRY ST,A,BERKELEY,94709,-122.27012140000002,37.8795445
206,"Johnson, Manning and Howell",Engineering geologist,3031,TELEGRAPH AVE,101,BERKELEY,94705,-122.2593262,37.854951299999996
207,Andrade Ltd,"Surveyor, hydrographic",2808,HILLEGASS AVE,A2,BERKELEY,94705,-122.25610559999998,37.859322
208,"Wyatt, Shea and Hernandez",Systems analyst,2818,COLLEGE AVE,,BERKELEY,94705,-122.25361969999999,37.8592598
209,Avila and Sons,"Biochemist, clinical",1304,CARLOTTA AVE,,BERKELEY,94703,-122.2802081,37.8822699
210,"Phillips, Rogers and Carlson",Outdoor activities/education manager,1304,HENRY ST,,BERKELEY,94709,-122.27124840000002,37.88288370000001
211,"Allison, Martinez and Lopez",Dentist,2010,HEARST AVE,A,BERKELEY,94709,-122.2701996,37.8734165
212,Bean-Schwartz,Higher education lecturer,2016,DELAWARE ST,B,BERKELEY,94709,-122.270312,37.8743119
213,Deleon-Salinas,"Development worker, community",1447,KAINS AVE,,BERKELEY,94702,-122.29359720000001,37.87744620000001
214,Webb-Riley,Social researcher,1832,DELAWARE ST,2,BERKELEY,94703,-122.2740945,37.873823
215,Hernandez-Garrett,Neurosurgeon,1171,VIRGINIA ST,,BERKELEY,94702,-122.2904942,37.8740751
216,Hunter-Bentley,Fine artist,1612,ADDISON ST,,BERKELEY,94703,-122.27887620000001,37.8688956
217,"Parks, Adams and Warren",Chartered certified accountant,812,DELAWARE ST,17-Sep,BERKELEY,94710,-122.2990841,37.8704076
218,Keith LLC,Ecologist,2120,SIXTH ST,1,BERKELEY,94710,-122.29736840000001,37.865880700000005
219,Cabrera PLC,Ecologist,1903,BONITA AVE,2,BERKELEY,94704,-122.27183000000001,37.873193
220,Lambert LLC,"Programmer, multimedia",1846,DELAWARE ST,2,BERKELEY,94703,-122.27356699999999,37.8740156
221,Whitehead LLC,Market researcher,2011,LINCOLN ST,C,BERKELEY,94709,-122.27087150000001,37.8775412
222,Grant-Montoya,"Designer, jewellery",2201,VIRGINIA ST,1,BERKELEY,94709,-122.2663502,37.877078000000004
223,"Elliott, Martin and Morris",Corporate investment banker,1780,HIGHLAND PL,,BERKELEY,94709,-122.2561668,37.876852299999996
224,"Thomas, Kennedy and Fowler",Solicitor,1817,CURTIS ST,,BERKELEY,94702,-122.2893777,37.871383
225,Campbell LLC,Bonds trader,1627,EIGHTH ST,,BERKELEY,94710,-122.2968284,37.87354129999999
226,Jackson LLC,Building surveyor,1644,CORNELL AVE,,BERKELEY,94702,-122.2911416,37.8740066
227,"Mckinney, Cook and Foster",Petroleum engineer,1928,FRANCISCO ST,,BERKELEY,94709,-122.272065,37.8750002
228,Hernandez-Sanchez,Illustrator,1605,STANNAGE AVE,,BERKELEY,94702,-122.2920765,37.87523529999999
229,Sanchez PLC,"Scientist, biomedical",1417,SPRUCE ST,C,BERKELEY,94709,-122.2657405,37.881799900000004
230,"Schneider, Bowman and Stout",Haematologist,2922,HILLEGASS AVE,B,BERKELEY,94705,-122.25597420000001,37.8571801
231,Carpenter-Ford,Prison officer,32,DOMINGO AVE,2,BERKELEY,94705,-122.2441576,37.857119399999995
232,Gross Group,"Education officer, environmental",2812,M L KING JR WAY,,BERKELEY,94703,-122.27179720000001,37.8574549
233,Parker-Robinson,Trade union research officer,2106,CALIFORNIA ST,,BERKELEY,94703,-122.27998600000001,37.8693624
234,Gonzalez-Schwartz,Human resources officer,1216,CORNELL AVE,,BERKELEY,94706,-122.2938902,37.8822781
235,Mason Inc,Rural practice surveyor,2045,BERRYMAN ST,,BERKELEY,94709,-122.27015520000002,37.884125399999995
236,Costa-Frank,Product/process development scientist,2550,DANA ST,4B,BERKELEY,94704,-122.26071359999999,37.8632048
237,Page-Powell,Marine scientist,1644,SAN PABLO AVE,4,BERKELEY,94702,-122.2941117,37.8739725
238,"Nelson, Bradley and Hall",Clinical research associate,2201,VIRGINIA ST,2,BERKELEY,94709,-122.2663502,37.877078000000004
239,Shelton-Johnson,"Surveyor, mining",2710,LE CONTE AVE,2,BERKELEY,94709,-122.25635349999999,37.877210999999996
240,Sullivan Ltd,Paramedic,1504,CARLETON ST,B,BERKELEY,94703,-122.279822,37.8593899
241,Mcmillan PLC,Energy manager,2430,FIFTH ST,B,BERKELEY,94710,-122.2967305,37.860243700000005
242,Peck and Sons,Paediatric nurse,1302,CARLOTTA AVE,,BERKELEY,94703,-122.2802081,37.8822699
243,Wolf Group,General practice doctor,2444,VIRGINIA ST,A,BERKELEY,94709,-122.26176720000001,37.8773889
244,Peters PLC,Sports development officer,1707,NINTH ST,,BERKELEY,94710,-122.29532069999999,37.8726598
245,Zhang Group,Field seismologist,2731,FULTON ST,2,BERKELEY,94705,-122.26395159999998,37.859567799999994
246,Mcfarland-Kramer,Equities trader,1532,SCENIC AVE,,BERKELEY,94708,-122.2639689,37.8803256
247,"Reed, Garner and Brown",Heritage manager,1557,ARCH ST,,BERKELEY,94708,-122.2643547,37.8797113
248,Terry and Sons,Sports therapist,1825,VINE ST,1,BERKELEY,94703,-122.2745691,37.879760499999996
249,Fisher PLC,Teaching laboratory technician,1420,GRANT ST,A,BERKELEY,94703,-122.2765888,37.880304200000005
250,Crawford PLC,Science writer,2830,WEBSTER ST,,BERKELEY,94705,-122.2488494,37.855745
251,"Owen, Davis and Brewer",Soil scientist,1801,UNIVERSITY AVE,402,BERKELEY,94703,-122.27501090000001,37.871598999999996
252,Jimenez-Lang,"Investment banker, operational",2030,PARKER ST,,BERKELEY,94704,-122.26823759999999,37.8617348
253,Morrow-Thompson,Advertising account planner,2646,REGENT ST,A,BERKELEY,94704,-122.2577903,37.8618396
254,"Price, Hopkins and Garcia",Chartered public finance accountant,1113,HEARST AVE,,BERKELEY,94702,-122.2919416,37.8709079
255,Sims and Sons,"Scientist, research (life sciences)",1511,ADDISON ST,,BERKELEY,94703,-122.28157150000001,37.869744299999994
256,Cross and Sons,"Engineer, mining",2515,ASHBY AVE,1,BERKELEY,94705,-122.25611289999999,37.8569238
257,"Love, Morse and Carlson",Magazine features editor,2644,ASHBY AVE,,BERKELEY,94705,-122.253307,37.8568268
258,Romero Ltd,Research scientist (physical sciences),2810,M L KING JR WAY,,BERKELEY,94703,-122.27179720000001,37.8574549
259,Henderson-Ramirez,Archivist,2815,PIEDMONT AVE,,BERKELEY,94705,-122.250818,37.85950510000001
260,"Bryant, Salas and Wilson","Scientist, research (medical)",2614,WARRING ST,2,BERKELEY,94704,-122.25057379999998,37.8634527
261,Foster Group,"Surveyor, quantity",2611,PIEDMONT AVE,2,BERKELEY,94704,-122.2510544,37.86360620000001
262,"Allen, Yang and Chavez",Race relations officer,2420,GRANT ST,,BERKELEY,94703,-122.274852,37.864101
263,"Hansen, West and James","Engineer, manufacturing",2220,SACRAMENTO ST,1,BERKELEY,94702,-122.2822304,37.866417999999996
264,Stephens PLC,Occupational therapist,2415,DURANT AVE,,BERKELEY,94704,-122.26062399999999,37.8678898
265,Sullivan PLC,Warden/ranger,1801,UNIVERSITY AVE,301,BERKELEY,94703,-122.27501090000001,37.871598999999996
266,"Stevens, Ferrell and Hunt",Intelligence analyst,2901,HILLEGASS AVE,1,BERKELEY,94705,-122.25539579999999,37.858025299999994
267,Carey Inc,Special educational needs teacher,2824,PIEDMONT AVE,,BERKELEY,94705,-122.2514501,37.8590379
268,Gomez Inc,Chartered legal executive (England and Wales),2638,STUART ST,,BERKELEY,94705,-122.2538301,37.859800299999996
269,Shaw-Mclaughlin,Medical illustrator,2646,REGENT ST,B,BERKELEY,94704,-122.2577903,37.8618396
270,Schneider Inc,Hydrogeologist,2129,FIFTH ST,,BERKELEY,94710,-122.29773259999999,37.8655039
271,Henson-Brown,"Education officer, environmental",1828,DELAWARE ST,1,BERKELEY,94703,-122.27422390000001,37.8738072
272,Rose-Sandoval,"Doctor, general practice",1522,SIXTH ST,A,BERKELEY,94710,-122.3000756,37.8743079
273,"Adams, Rubio and Sharp","Pilot, airline",1301,VIRGINIA ST,,BERKELEY,94702,-122.2883175,37.874401500000005
274,Knight LLC,Animal technologist,1734,HEARST AVE,2,BERKELEY,94703,-122.27594779999998,37.8726783
275,"Hoover, Evans and Silva",Health physicist,2312,BLAKE ST,,BERKELEY,94704,-122.2621365,37.863460700000005
276,Hicks Inc,"Designer, industrial/product",1530,SPRUCE ST,,BERKELEY,94709,-122.26615,37.879558
277,Dodson Group,"Designer, exhibition/display",1420,GRANT ST,B,BERKELEY,94703,-122.2765888,37.880304200000005
278,Johns-Kennedy,"Accountant, chartered",1417,SPRUCE ST,F,BERKELEY,94709,-122.2657405,37.881799900000004
279,Fields Group,"Programmer, systems",1406,EUCLID AVE,6,BERKELEY,94708,-122.2617988,37.8827826
280,Short-Rios,Minerals surveyor,3031,TELEGRAPH AVE,241,BERKELEY,94705,-122.2593262,37.854951299999996
281,"Welch, Hart and Johnson",Toxicologist,2550,DANA ST,G15,BERKELEY,94704,-122.26071359999999,37.8632048
282,Leonard-Cohen,"Teacher, English as a foreign language",2550,DANA ST,2B,BERKELEY,94704,-122.26071359999999,37.8632048
283,Wright-Holt,Location manager,2658,RUSSELL ST,,BERKELEY,94705,-122.25335179999999,37.8582277
284,Webb Ltd,Osteopath,2550,DANA ST,G7,BERKELEY,94704,-122.26071359999999,37.8632048
285,Munoz PLC,Special educational needs teacher,2926,HILLEGASS AVE,,BERKELEY,94705,-122.25597420000001,37.8571801
286,Fisher Ltd,Insurance broker,2702,EIGHTH ST,,BERKELEY,94710,-122.2921601,37.856885
287,Durham LLC,Trading standards officer,2589,HILGARD AVE,,BERKELEY,94709,-122.25935990000002,37.879084999999996
288,Rosales-Duarte,Chief Executive Officer,2711,VIRGINIA ST,2,BERKELEY,94709,-122.25646880000001,37.878562200000005
289,Flores Inc,Arts development officer,2777,NINTH ST,17,BERKELEY,94710,-122.289841,37.856064
290,Walsh Group,"Engineer, electronics",2601,COLLEGE AVE,205,BERKELEY,94704,-122.25331570000002,37.8637058
291,Miller-Fischer,"Scientist, product/process development",2106,JEFFERSON AVE,,BERKELEY,94703,-122.27887620000001,37.8688956
292,"Weiss, Howard and Wells",Adult nurse,1845,SPRUCE ST,,BERKELEY,94709,-122.265193,37.874801299999994
293,"Carey, Williams and James",Press sub,2273,CEDAR ST,2,BERKELEY,94709,-122.265102,37.879100799999996
294,Powers and Sons,Podiatrist,2413,FIFTH ST,C,BERKELEY,94710,-122.296233,37.8610121
295,"Wright, Bryant and Johnson",Make,2220,SACRAMENTO ST,9,BERKELEY,94702,-122.2822304,37.866417999999996
296,Taylor Ltd,Cytogeneticist,1714,GRANT ST,,BERKELEY,94703,-122.27588459999998,37.8750138
297,Hansen-Douglas,"Engineer, manufacturing systems",2317,CARLETON ST,B,BERKELEY,94704,-122.2617076,37.8622285
298,Reyes-Cardenas,Television floor manager,2501,DANA ST,2,BERKELEY,94704,-122.2603926,37.864649
299,"Hamilton, Williams and Day","Optician, dispensing",766,GILMAN ST,,BERKELEY,94710,-122.3038639,37.878271600000005
300,Johnson and Sons,Lobbyist,1805,BLAKE ST,,BERKELEY,94703,-122.27379180000001,37.862462
301,"Snyder, Christian and Sims",Administrator,2030,BLAKE ST,C,BERKELEY,94704,-122.26841950000001,37.8626453
302,Campbell-Wise,"Engineer, production",1705,CHANNING WAY,,BERKELEY,94703,-122.27644509999999,37.8648524
303,Green-Thompson,Wellsite geologist,1316,POE ST,,BERKELEY,94702,-122.2855409,37.864079499999995
304,Smith-Williams,Investment analyst,5,PANORAMIC WAY,,BERKELEY,94704,-122.249347,37.868918
305,Klein Group,"Nurse, adult",1433,ADDISON ST,,BERKELEY,94702,-122.2826569,37.8695853
306,"Robinson, Brooks and Lindsey",Training and development officer,2022,CEDAR ST,,BERKELEY,94709,-122.2701071,37.8780234
307,"Moore, Nelson and Rivera",Futures trader,1919,MILVIA ST,,BERKELEY,94704,-122.2705696,37.872935
308,Nolan and Sons,"Pharmacist, community",2720,NINTH ST,,BERKELEY,94710,-122.2908808,37.856763
309,"Riley, Gomez and Harris",Therapeutic radiographer,1561,EUCLID AVE,1,BERKELEY,94708,-122.2610825,37.8802065
310,"Smith, Arellano and Cole",Careers adviser,1427,BONITA AVE,,BERKELEY,94709,-122.27252469999999,37.8806199
311,Moreno LLC,"Therapist, horticultural",2005,ROSE ST,A,BERKELEY,94709,-122.2715388,37.882019
312,Cherry Inc,"Engineer, production",2578,VIRGINIA ST,6,BERKELEY,94709,-122.2593389,37.87770220000001
313,"Ray, Andersen and Rodriguez","Engineer, maintenance",2513,GRANT ST,,BERKELEY,94703,-122.27393980000001,37.8625301
314,"Fitzgerald, Morton and Barton","Producer, radio",2614,WARRING ST,7,BERKELEY,94704,-122.25057379999998,37.8634527
315,Hamilton-Gonzalez,"Doctor, general practice",1849,SHATTUCK AVE,302,BERKELEY,94709,-122.2683676,37.8741951
316,Olson PLC,Community education officer,1814,SIXTY-THIRD ST,C,BERKELEY,94703,-122.27034450000001,37.847689100000004
317,Harris-Benjamin,Politician's assistant,927,PARDEE ST,,BERKELEY,94710,-122.2915453,37.856593700000005
318,Chapman Ltd,"Development worker, community",1322,ORDWAY ST,,BERKELEY,94702,-122.2873737,37.879826200000004
319,Johnson-Novak,Biomedical scientist,1301,BONITA AVE,2,BERKELEY,94709,-122.27287620000001,37.883261499999996
320,"Davis, Rangel and Cook",Corporate treasurer,1814,SIXTY-THIRD ST,B,BERKELEY,94703,-122.27034450000001,37.847689100000004
321,Wilson-Peterson,Merchant navy officer,2704,LE CONTE AVE,2,BERKELEY,94709,-122.256821,37.87713170000001
322,Steele Ltd,"Editor, commissioning",732,GILMAN ST,,BERKELEY,94710,-122.3038639,37.878271600000005
323,Sharp Inc,Comptroller,1849,SHATTUCK AVE,408,BERKELEY,94709,-122.2683676,37.8741951
324,Williams-Smith,"Geologist, wellsite",2113,CALIFORNIA ST,,BERKELEY,94703,-122.27887620000001,37.8688956
325,Kelly Ltd,"Teacher, English as a foreign language",2550,DANA ST,G26,BERKELEY,94704,-122.26071359999999,37.8632048
326,Romero-Munoz,Orthoptist,2700,LE CONTE AVE,,BERKELEY,94709,-122.256821,37.87713170000001
327,"Moore, Mcdonald and Schneider","Engineer, biomedical",2342,HILGARD AVE,,BERKELEY,94709,-122.2635274,37.8780291
328,Molina-Lewis,Company secretary,1824,ARCH ST,,BERKELEY,94709,-122.2644463,37.8756604
329,"Moran, Dorsey and Evans",Orthoptist,2700,LE CONTE AVE,,BERKELEY,94709,-122.256821,37.87713170000001
330,Valdez Ltd,"Exhibitions officer, museum/gallery",1363,CURTIS ST,B,BERKELEY,94702,-122.2905331,37.8793474
331,Kelly-Collier,Location manager,2522,DANA ST,207,BERKELEY,94704,-122.26081090000002,37.863695899999996
332,Marshall-Nichols,Warehouse manager,3031,TELEGRAPH AVE,106,BERKELEY,94705,-122.2593262,37.854951299999996
333,Henry-Hughes,Senior tax professional/tax inspector,2352,HILGARD AVE,,BERKELEY,94709,-122.2635274,37.8780291
334,"Cruz, Mckee and Johnson",Insurance underwriter,800,DELAWARE ST,4-Jan,BERKELEY,94710,-122.2990841,37.8704076
335,Garcia-Smith,Naval architect,1417,SPRUCE ST,E,BERKELEY,94709,-122.2657405,37.881799900000004
336,"Johnson, Gonzalez and Jones","Engineer, site",1404,HENRY ST,1,BERKELEY,94709,-122.27097890000002,37.881178600000005
337,Gray LLC,"Scientist, audiological",2725,PRINCE ST,4,BERKELEY,94705,-122.25169869999999,37.855219399999996
338,Booker-Alexander,Clinical psychologist,2777,NINTH ST,6,BERKELEY,94710,-122.289841,37.856064
339,Trevino-Johnson,Planning and development surveyor,2815,REGENT ST,3,BERKELEY,94705,-122.25660829999998,37.8592185
340,Simpson Ltd,Games developer,2828,PIEDMONT AVE,,BERKELEY,94705,-122.2514501,37.8590379
341,"Lamb, Bass and Ramirez","Engineer, civil (contracting)",2515,HILGARD AVE,3,BERKELEY,94709,-122.2603642,37.878938700000006
342,"Wallace, Ramirez and Flynn",Herbalist,2,PANORAMIC WAY,106,BERKELEY,94704,-122.24988710000001,37.8691684
343,Jenkins Group,Press photographer,0,PANORAMIC WAY,,BERKELEY,94704,-122.249347,37.868918
344,Thompson-Morrison,"Presenter, broadcasting",2682,PARKER ST,,BERKELEY,94704,-122.2538469,37.8634045
345,Santiago-White,Trading standards officer,1234,DELAWARE ST,,BERKELEY,94702,-122.2887006,37.8718399
346,"Kaiser, Meyer and Ortiz",Stage manager,1628,BERKELEY WAY,,BERKELEY,94703,-122.2785029,37.8715052
347,"Lane, Reid and Stout","Surveyor, minerals",1801,CURTIS ST,,BERKELEY,94702,-122.28960159999998,37.871823600000006
348,Stevenson PLC,Electrical engineer,1816,DWIGHT WAY,,BERKELEY,94703,-122.2735648,37.8628914
349,Wilson PLC,Multimedia programmer,2,PANORAMIC WAY,302,BERKELEY,94704,-122.24988710000001,37.8691684
350,"Thompson, Lopez and Mitchell",Web designer,740,GILMAN ST,,BERKELEY,94710,-122.3038639,37.878271600000005
351,Ray-Ortiz,Animal technologist,2550,DANA ST,2C,BERKELEY,94704,-122.26071359999999,37.8632048
352,"Romero, Duran and Howell",Exhibition designer,2842,WOOLSEY ST,3,BERKELEY,94705,-122.249269,37.8540511
353,Johnson Group,Theatre stage manager,3113,SHATTUCK AVE,3,BERKELEY,94705,-122.26582920000001,37.8526491
354,Carlson Group,Financial adviser,1314,KAINS AVE,1,BERKELEY,94702,-122.29494340000001,37.88
355,"Phillips, Werner and Santos",Manufacturing systems engineer,1314,HOPKINS ST,,BERKELEY,94702,-122.28786470000001,37.87808629999999
356,Phillips-Jones,Textile designer,2641,WEBSTER ST,3,BERKELEY,94705,-122.2533533,37.8562407
357,"Alvarado, Myers and Thornton",Make,3036,FULTON ST,B,BERKELEY,94705,-122.26358259999999,37.8543909
358,Simpson and Sons,Community pharmacist,1128,DERBY ST,,BERKELEY,94702,-122.28705690000001,37.8575571
359,White-White,"Buyer, retail",30,DOMINGO AVE,2,BERKELEY,94705,-122.24413909999998,37.8572558
360,"Rivera, Baker and Mann",Microbiologist,1935,CARLETON ST,A,BERKELEY,94704,-122.27025520000001,37.8611024
361,Hanna-Wallace,"Designer, fashion/clothing",2804,HILLEGASS AVE,2,BERKELEY,94705,-122.25612759999999,37.8595283
362,Le Ltd,Fast food restaurant manager,1178,ARCH ST,,BERKELEY,94708,-122.26587009999999,37.8868742
363,"Sanchez, Knapp and Johnson",Theme park manager,1195,EUCLID AVE,2,BERKELEY,94708,-122.2618918,37.886920399999994
364,Holloway-Miller,"Engineer, energy",2374,HILGARD AVE,,BERKELEY,94709,-122.26328799999999,37.8781393
365,Mata-Jackson,"Production designer, theatre/television/film",1635,SCENIC AVE,2,BERKELEY,94709,-122.26262009999999,37.8786974
366,White-Cook,Cartographer,2914,DEAKIN ST,1,BERKELEY,94705,-122.26285530000001,37.8566514
367,"Flowers, Blevins and Barton",Interior and spatial designer,2904,BENVENUE AVE,,BERKELEY,94705,-122.25469040000002,37.857996500000006
368,Gomez-Moreno,Secondary school teacher,2424,NINTH ST,,BERKELEY,94710,-122.2924598,37.861446
369,Maxwell-Woodward,"Designer, ceramics/pottery",2603,BENVENUE AVE,2,BERKELEY,94704,-122.2546591,37.8633001
370,"Mclean, Cooley and Moore","Teacher, special educational needs",2601,COLLEGE AVE,102,BERKELEY,94704,-122.25331570000002,37.8637058
371,Wood PLC,Animal nutritionist,30,DOMINGO AVE,1,BERKELEY,94705,-122.24413909999998,37.8572558
372,"Patterson, King and Rodriguez",Secretary/administrator,1790,HIGHLAND PL,A,BERKELEY,94709,-122.2561668,37.876852299999996
373,"Horton, Alexander and Clark",Computer games developer,2501,DANA ST,9,BERKELEY,94704,-122.2603926,37.864649
374,Rose-Sullivan,Armed forces technical officer,1401,WALNUT ST,1C,BERKELEY,94709,-122.26804409999998,37.8819919
375,"Martinez, Wong and Mcneil","Psychologist, counselling",1801,UNIVERSITY AVE,310,BERKELEY,94703,-122.27501090000001,37.871598999999996
376,"Smith, Brown and Patel",Water engineer,2601,COLLEGE AVE,306,BERKELEY,94704,-122.25331570000002,37.8637058
377,"Murillo, Flores and Santiago",Sport and exercise psychologist,2143,CALIFORNIA ST,,BERKELEY,94703,-122.27887620000001,37.8688956
378,Russell-Yu,Herbalist,32,DOMINGO AVE,3,BERKELEY,94705,-122.2441576,37.857119399999995
379,Owens-Osborn,"Programmer, applications",2149,CALIFORNIA ST,,BERKELEY,94703,-122.27887620000001,37.8688956
380,Evans-Murray,"Teacher, adult education",1408,HENRY ST,,BERKELEY,94709,-122.27012140000002,37.8795445
381,Ramirez-Garcia,"Journalist, magazine",1846,DELAWARE ST,4,BERKELEY,94703,-122.27356699999999,37.8740156
382,"Rios, Mason and Robinson",Biomedical scientist,1732,HEARST AVE,4,BERKELEY,94703,-122.27612479999999,37.872659000000006
383,"Munoz, Mendoza and Smith",Surgeon,1707,CHANNING WAY,,BERKELEY,94703,-122.27644509999999,37.8648524
384,Navarro Ltd,"Administrator, sports",1801,UNIVERSITY AVE,206,BERKELEY,94703,-122.27501090000001,37.871598999999996
385,Cunningham-Delgado,"Doctor, hospital",3031,TELEGRAPH AVE,130,BERKELEY,94705,-122.2593262,37.854951299999996
386,Smith-Bowers,Set designer,1830,ARCH ST,,BERKELEY,94709,-122.2644463,37.8756604
387,Baker Group,"Engineer, chemical",2700,LE CONTE AVE,,BERKELEY,94709,-122.256821,37.87713170000001
388,"Merritt, Sanchez and Macias","Production assistant, radio",2371,VIRGINIA ST,3,BERKELEY,94709,-122.2632861,37.8777114
389,"Bryant, Villarreal and Lopez",Firefighter,1312,HENRY ST,,BERKELEY,94709,-122.27124840000002,37.88288370000001
390,"King, Williams and Shaffer","Designer, multimedia",1665,EUCLID AVE,2,BERKELEY,94709,-122.2604922,37.8783783
391,Anderson Inc,Environmental manager,1647,CORNELL AVE,,BERKELEY,94702,-122.2907976,37.8740245
392,Hayes-Mcintyre,Forest/woodland manager,1509,VIRGINIA ST,A,BERKELEY,94703,-122.28185559999999,37.87520870000001
393,Rivera-Shaw,Chief Financial Officer,3031,TELEGRAPH AVE,136,BERKELEY,94705,-122.2593262,37.854951299999996
394,Nguyen-Martinez,Financial adviser,2777,NINTH ST,18,BERKELEY,94710,-122.289841,37.856064
395,Prince-Turner,Sport and exercise psychologist,1808,DWIGHT WAY,,BERKELEY,94703,-122.2735648,37.8628914
396,Green Group,Theatre director,1801,UNIVERSITY AVE,204,BERKELEY,94703,-122.27501090000001,37.871598999999996
397,Robbins-Barry,Public librarian,2029,CHANNING WAY,1C,BERKELEY,94704,-122.26856090000001,37.8659125
398,Foster-Dixon,Chemical engineer,1820,FIFTH ST,,BERKELEY,94710,-122.2996879,37.8694348
399,Ware Inc,"Solicitor, Scotland",1921,MILVIA ST,,BERKELEY,94704,-122.2705696,37.872935
400,Spencer Inc,Volunteer coordinator,1111,HEARST AVE,,BERKELEY,94702,-122.2919416,37.8709079
401,"Bishop, Conley and Williams","Psychologist, prison and probation services",1509,ADDISON ST,,BERKELEY,94703,-122.28157150000001,37.869744299999994
402,Anderson and Sons,Energy manager,2801,RUSSELL ST,,BERKELEY,94705,-122.2509338,37.8588827
403,Escobar Inc,Mental health nurse,2413,FIFTH ST,A,BERKELEY,94710,-122.296233,37.8610121
404,Boyd-White,"Engineer, land",2417,CARLETON ST,1,BERKELEY,94704,-122.25937420000001,37.8625304
405,"Davies, Guzman and Shelton",Hotel manager,2638,WARRING ST,A,BERKELEY,94704,-122.25048909999998,37.862598600000005
406,Fox and Sons,"Merchandiser, retail",2519,ETNA ST,U1,BERKELEY,94704,-122.2523503,37.8651064
407,Johnson PLC,Control and instrumentation engineer,1731,ALLSTON WAY,,BERKELEY,94703,-122.27586200000002,37.868556299999995
408,Gray Ltd,Radiation protection practitioner,2614,WARRING ST,6,BERKELEY,94704,-122.25057379999998,37.8634527
409,Elliott Ltd,Wellsite geologist,2615,TELEGRAPH AVE,206,BERKELEY,94704,-122.25839669999999,37.862803
410,Kaiser-Whitaker,Hydrogeologist,1837,SPRUCE ST,6,BERKELEY,94709,-122.265193,37.874801299999994
411,Turner-Thompson,"Merchandiser, retail",2444,VIRGINIA ST,F,BERKELEY,94709,-122.26176720000001,37.8773889
412,Parsons-Thompson,Public librarian,1645,FRANKLIN ST,,BERKELEY,94702,-122.2856494,37.8751944
413,Roberts LLC,"Social research officer, government",2601,COLLEGE AVE,103,BERKELEY,94704,-122.25331570000002,37.8637058
414,"White, Macias and Walton",Chartered management accountant,1312,POE ST,,BERKELEY,94702,-122.2857808,37.864042100000006
415,"Wright, Jones and Greene",IT technical support officer,1325,ADDISON ST,,BERKELEY,94702,-122.28528359999999,37.8692676
416,Collins-Adams,Air traffic controller,1674,UNIVERSITY AVE,,BERKELEY,94703,-122.27816409999998,37.8705395
417,"Johnson, Wells and Hubbard","Presenter, broadcasting",1140,DELAWARE ST,2,BERKELEY,94702,-122.29089170000002,37.8715551
418,"Terry, Atkins and Jenkins",Dentist,1126,DELAWARE ST,2,BERKELEY,94702,-122.29160309999999,37.87146370000001
419,Butler and Sons,"Designer, furniture",1721,FIFTH ST,,BERKELEY,94710,-122.2993487,37.87111420000001
420,"Berg, Sanders and Brewer","Engineer, communications",1409,SPRUCE ST,B,BERKELEY,94709,-122.2658446,37.8821412
421,"Page, Tapia and Rubio",Regulatory affairs officer,1582,HOPKINS ST,,BERKELEY,94707,-122.2814618,37.8816592
422,Hill and Sons,Psychiatrist,2741,GARBER ST,3,BERKELEY,94705,-122.2516983,37.8609793
423,Burns PLC,"Physicist, medical",1130,DERBY ST,,BERKELEY,94702,-122.28705690000001,37.8575571
424,Mason Ltd,Firefighter,1368,HENRY ST,,BERKELEY,94709,-122.27124840000002,37.88288370000001
425,Johnson-Soto,Control and instrumentation engineer,1849,SHATTUCK AVE,406,BERKELEY,94709,-122.2683676,37.8741951
426,"Mills, Scott and Hall",Horticultural therapist,1300,SHATTUCK AVE,C,BERKELEY,94709,-122.27001000000001,37.8836055
427,Smith PLC,Pharmacologist,2641,WEBSTER ST,2,BERKELEY,94705,-122.2533533,37.8562407
428,Smith Ltd,Landscape architect,2716,BENVENUE AVE,,BERKELEY,94705,-122.25504740000001,37.8610074
429,Hall-Ruiz,Information officer,2550,DANA ST,G24,BERKELEY,94704,-122.26071359999999,37.8632048
430,Wilson LLC,Associate Professor,2115,CALIFORNIA ST,,BERKELEY,94703,-122.27887620000001,37.8688956
431,"Henderson, Villegas and Myers",Environmental manager,800,DELAWARE ST,1427,BERKELEY,94710,-122.2990841,37.8704076
432,Reed-Reed,Chiropractor,2615,TELEGRAPH AVE,207,BERKELEY,94704,-122.25839669999999,37.862803
433,Smith-Middleton,Biomedical engineer,1828,ARCH ST,,BERKELEY,94709,-122.2644463,37.8756604
434,Alexander and Sons,"Therapist, occupational",2201,VIRGINIA ST,7,BERKELEY,94709,-122.2663502,37.877078000000004
435,"Beltran, Martin and Ray",Community development worker,760,GILMAN ST,A,BERKELEY,94710,-122.3038639,37.878271600000005
436,"Duncan, Franco and Charles",Purchasing manager,1801,UNIVERSITY AVE,205,BERKELEY,94703,-122.27501090000001,37.871598999999996
437,Watts-Andrews,Science writer,2550,DANA ST,G14,BERKELEY,94704,-122.26071359999999,37.8632048
438,"Johnston, Franco and Perkins","Restaurant manager, fast food",1511,HENRY ST,B,BERKELEY,94709,-122.2701351,37.879649
439,Turner-Mercado,Training and development officer,1338,SEVENTH ST,,BERKELEY,94710,-122.3001731,37.8782912
440,Green LLC,"Scientist, marine",2980,COLLEGE AVE,7,BERKELEY,94705,-122.25334099999999,37.856528000000004
441,"Lopez, Kelly and Bryant",Horticultural consultant,2704,EIGHTH ST,,BERKELEY,94710,-122.2921601,37.856885
442,White Ltd,Retail banker,1614,ADDISON ST,,BERKELEY,94703,-122.27887620000001,37.8688956
443,Berger-Austin,"Conservator, museum/gallery",1450,FOURTH ST,15,BERKELEY,94710,-122.3028973,37.875306
444,Steele-Hill,Learning mentor,2372,HILGARD AVE,,BERKELEY,94709,-122.26328799999999,37.8781393
445,Lucero LLC,Automotive engineer,1509,HENRY ST,A,BERKELEY,94709,-122.2701351,37.879649
446,"Walters, Jones and Turner",Sports coach,1849,SHATTUCK AVE,201,BERKELEY,94709,-122.2683676,37.8741951
447,Douglas LLC,Field seismologist,1814,SIXTY-THIRD ST,D,BERKELEY,94703,-122.27034450000001,37.847689100000004
448,"Martin, Fuller and Mcknight",Diplomatic Services operational officer,2640,REGENT ST,,BERKELEY,94704,-122.25785159999998,37.861962299999995
449,"Ross, Harris and Galloway",Web designer,2777,NINTH ST,2,BERKELEY,94710,-122.289841,37.856064
450,Cordova-Evans,Ship broker,2777,NINTH ST,20,BERKELEY,94710,-122.289841,37.856064
451,Davis-Moore,"Production designer, theatre/television/film",2601,COLLEGE AVE,208,BERKELEY,94704,-122.25331570000002,37.8637058
452,Patrick and Sons,"Engineer, aeronautical",2,PANORAMIC WAY,103,BERKELEY,94704,-122.24988710000001,37.8691684
453,Mendez PLC,"Surveyor, minerals",2107,WEST ST,,BERKELEY,94702,-122.2860206,37.8686248
454,"Medina, Richardson and Gardner",Communications engineer,1822,BERKELEY WAY,3,BERKELEY,94703,-122.2742487,37.8720348
455,Salazar-Duke,"Programmer, applications",1424,NORTHSIDE AVE,,BERKELEY,94702,-122.29014309999998,37.8781044
456,Adams PLC,"Secretary, company",2029,CHANNING WAY,2D,BERKELEY,94704,-122.26856090000001,37.8659125
457,Collier-Stewart,Armed forces technical officer,2601,COLLEGE AVE,305,BERKELEY,94704,-122.25331570000002,37.8637058
458,Anthony and Sons,Museum/gallery conservator,1729,SIXTH ST,A,BERKELEY,94710,-122.2984238,37.871461
459,Padilla Group,"Development worker, community",1231,FOURTH ST,C,BERKELEY,94710,-122.30350349999999,37.8798848
460,Vasquez-Terry,Water quality scientist,1515,HOPKINS ST,2,BERKELEY,94707,-122.2829669,37.8813789
461,"Elliott, Smith and Olson",Diagnostic radiographer,1332,HENRY ST,,BERKELEY,94709,-122.27124840000002,37.88288370000001
462,Erickson PLC,Psychiatric nurse,1711,MILVIA ST,A,BERKELEY,94709,-122.2708655,37.8759629
463,"Lawrence, York and Palmer","Education officer, museum",1717,LA LOMA AVE,3,BERKELEY,94709,-122.25646950000001,37.877599200000006
464,Burns-Bond,"Engineer, control and instrumentation",2350,HILGARD AVE,,BERKELEY,94709,-122.2635274,37.8780291
465,Cruz LLC,Company secretary,2317,CARLETON ST,C,BERKELEY,94704,-122.2617076,37.8622285
466,Wilson LLC,"Engineer, broadcasting (operations)",3154,COLLEGE AVE,4,BERKELEY,94705,-122.2528513,37.851904100000006
467,Kane-Rios,Information officer,2522,DANA ST,206,BERKELEY,94704,-122.26081090000002,37.863695899999996
468,Brown PLC,Clinical research associate,3117,COLLEGE AVE,U6,BERKELEY,94705,-122.2523535,37.8532319
469,Sims Ltd,Probation officer,3111,COLLEGE AVE,C,BERKELEY,94705,-122.2523701,37.8534062
470,Jones-Lam,Product designer,1419,KAINS AVE,,BERKELEY,94702,-122.2938872,37.878342100000005
471,"Small, Short and Beck","Horticulturist, commercial",1314,KAINS AVE,2,BERKELEY,94702,-122.29494340000001,37.88
472,Baldwin-Madden,Financial trader,2366,CEDAR ST,2,BERKELEY,94708,-122.2633872,37.8789099
473,Young-Cardenas,Television floor manager,2147,STUART ST,3,BERKELEY,94705,-122.2649655,37.8590519
474,Reid-Lee,"Programmer, systems",2512,NINTH ST,10,BERKELEY,94710,-122.29206780000001,37.8602449
475,Stanley-Estrada,Video editor,2111,CALIFORNIA ST,,BERKELEY,94703,-122.27887620000001,37.8688956
476,"Cantrell, Garcia and Walker","Teacher, secondary school",748,GILMAN ST,B,BERKELEY,94710,-122.3038639,37.878271600000005
477,Cole and Sons,Operations geologist,2910,HILLEGASS AVE,4,BERKELEY,94705,-122.2560858,37.857684000000006
478,"Bailey, Owens and Ho","Nurse, learning disability",47,CANYON RD,,BERKELEY,94704,-122.2484209,37.870504100000005
479,Boyer-Jackson,"Therapist, nutritional",2330,BROWNING ST,,BERKELEY,94702,-122.28767820000002,37.8639605
480,Cook Group,Gaffer,2210,STUART ST,,BERKELEY,94705,-122.26348899999999,37.8587054
481,"Melton, Shaw and Ortiz",Armed forces logistics/support/administrative officer,2147,STUART ST,2,BERKELEY,94705,-122.2649655,37.8590519
482,Preston Ltd,Charity fundraiser,1733,BLAKE ST,,BERKELEY,94703,-122.27484380000001,37.8623751
483,Campos-Ray,Public house manager,2142,EUNICE ST,,BERKELEY,94709,-122.2681281,37.8857284
484,Payne LLC,Horticultural consultant,1267,BERKELEY WAY,,BERKELEY,94702,-122.28744409999999,37.870698
485,Anderson-Wright,Forensic scientist,2012,DELAWARE ST,A,BERKELEY,94709,-122.2705919,37.8742742
486,Massey Inc,Exhibition designer,3031,TELEGRAPH AVE,212,BERKELEY,94705,-122.2593262,37.854951299999996
487,Rodriguez LLC,"Engineer, civil (consulting)",2146,JEFFERSON AVE,,BERKELEY,94703,-122.27887620000001,37.8688956
488,Jones-Smith,Clinical biochemist,2150,JEFFERSON AVE,,BERKELEY,94703,-122.27887620000001,37.8688956
489,"Jacobs, Taylor and Dixon",Music tutor,1412,HAWTHORNE TER,,BERKELEY,94708,-122.26277420000001,37.882321399999995
490,Hughes Group,Network engineer,1305,M L KING JR WAY,,BERKELEY,94709,-122.2739942,37.8829939
491,Peterson-Smith,Materials engineer,730,GILMAN ST,,BERKELEY,94710,-122.3038639,37.878271600000005
492,"Delgado, Hunt and Montes","Designer, blown glass/stained glass",2149,STUART ST,3,BERKELEY,94705,-122.2647885,37.859074299999996
493,Ward and Sons,"Engineer, structural",2120,SIXTH ST,8,BERKELEY,94710,-122.29736840000001,37.865880700000005
494,Montgomery Inc,"Engineer, land",2220,SACRAMENTO ST,8,BERKELEY,94702,-122.2822304,37.866417999999996
495,"Anderson, Gross and Reeves",Airline pilot,807,DELAWARE ST,8-Mar,BERKELEY,94710,-122.2990841,37.8704076
496,Powell Ltd,Theatre stage manager,2710,LE CONTE AVE,3,BERKELEY,94709,-122.25635349999999,37.877210999999996
497,Haynes PLC,"Loss adjuster, chartered",1654,SAN PABLO AVE,B,BERKELEY,94702,-122.2939965,37.873625700000005
498,Williams LLC,Trading standards officer,1849,SHATTUCK AVE,301,BERKELEY,94709,-122.2683676,37.8741951
499,"Johnson, Thomas and Alexander","Exhibitions officer, museum/gallery",1318,FOURTH ST,,BERKELEY,94710,-122.3038639,37.878271600000005
